{"type":"FeatureCollection","features":[{"type":"Feature","properties":{},"geometry":{"coordinates":[[[-122.37449214623992,47.73361254276091],[-122.40457930242064,47.696177954128274],[-122.43153989907768,47.66127914843469],[-122.41576844946414,47.64252919312145],[-122.39022906889426,47.62986070920752],[-122.36389855903117,47.62124429824999],[-122.34279844166616,47.60653702984243],[-122.34278842293612,47.59639192028851],[-122.3533102764744,47.58827346854068],[-122.3850061651782,47.59387897702695],[-122.41956900834981,47.577138033646634],[-122.40007784741059,47.555352971989805],[-122.39709442246604,47.5289854424328],[-122.39330181432182,47.50916516897607],[-122.35956280679113,47.482823305241936],[-122.2218224856489,47.479152916178066],[-122.21642924775443,47.500439727642856],[-122.25262214506165,47.514701492126335],[-122.26244473741875,47.52386029428121],[-122.25784290793173,47.54667456639464],[-122.26838220725966,47.56647093833189],[-122.28579588065446,47.58374289668035],[-122.278186098731,47.61820396783341],[-122.27664731742215,47.6298598933312],[-122.27890250566071,47.643542234156314],[-122.29926401029796,47.647086503308685],[-122.2917143671416,47.65519279640361],[-122.27437168096314,47.65012968907217],[-122.2683488454197,47.66330168274757],[-122.25026351047521,47.67343571562034],[-122.24649602906447,47.68204644085179],[-122.25552205654611,47.68913601676755],[-122.26766392885563,47.691647283696085],[-122.27446707934838,47.70783241434779],[-122.27990550524066,47.72598563159829],[-122.28671391942582,47.73506570879536],[-122.37449214623992,47.73361254276091]]],"type":"Polygon"}}]}